H1 CPF  1  DLR 2022 04 29 10  6192 technosat            
H2  1704205 6203    42829 2022 04 29 00 00 00 2022 05 06 00 00 00    60 1 1  0 0 0
H9
10 0 59702  79200.000000  0       5786284.373      -3682278.244      -1224068.691
10 0 59702  79260.000000  0       5659862.846      -3707507.102      -1664504.850
10 0 59702  79320.000000  0       5509379.731      -3715858.958      -2097857.104
10 0 59702  79380.000000  0       5335633.284      -3707100.735      -2522286.402
10 0 59702  79440.000000  0       5139521.915      -3681079.743      -2935994.270
10 0 59702  79500.000000  0       4922039.268      -3637724.920      -3337230.570
10 0 59702  79560.000000  0       4684268.887      -3577047.695      -3724300.924
10 0 59702  79620.000000  0       4427378.530      -3499142.472      -4095573.856
10 0 59702  79680.000000  0       4152614.115      -3404186.646      -4449487.626
10 0 59702  79740.000000  0       3861293.355      -3292440.189      -4784556.643
10 0 59702  79800.000000  0       3554799.147      -3164244.852      -5099377.462
10 0 59702  79860.000000  0       3234572.760      -3020022.981      -5392634.351
10 0 59702  79920.000000  0       2902106.886      -2860275.998      -5663104.420
10 0 59702  79980.000000  0       2558938.562      -2685582.545      -5909662.352
10 0 59702  80040.000000  0       2206642.003      -2496596.277      -6131284.747
10 0 59702  80100.000000  0       1846821.314      -2294043.271      -6327054.069
10 0 59702  80160.000000  0       1481103.110      -2078719.058      -6496162.086
10 0 59702  80220.000000  0       1111129.153      -1851485.332      -6637912.770
10 0 59702  80280.000000  0        738549.068      -1613266.429      -6751724.720
10 0 59702  80340.000000  0        365013.115      -1365045.563      -6837133.207
10 0 59702  80400.000000  0         -7835.008      -1107860.734      -6893791.726
10 0 59702  80460.000000  0       -378365.152       -842800.441      -6921473.079
10 0 59702  80520.000000  0       -744967.628       -570999.171      -6920070.132
10 0 59702  80580.000000  0      -1106060.042       -293632.637      -6889596.092
10 0 59702  80640.000000  0      -1460093.926        -11912.783      -6830184.279
10 0 59702  80700.000000  0      -1805561.162        272917.347      -6742087.499
10 0 59702  80760.000000  0      -2141000.188        559588.940      -6625676.998
10 0 59702  80820.000000  0      -2465001.973        846812.892      -6481441.002
10 0 59702  80880.000000  0      -2776215.767       1133285.441      -6309982.836
10 0 59702  80940.000000  0      -3073354.599       1417693.893      -6112018.625
10 0 59702  81000.000000  0      -3355200.534       1698722.477      -5888374.631
10 0 59702  81060.000000  0      -3620609.683       1975058.305      -5639984.120
10 0 59702  81120.000000  0      -3868516.886       2245397.396      -5367883.797
10 0 59702  81180.000000  0      -4097940.069       2508450.764      -5073209.769
10 0 59702  81240.000000  0      -4307984.224       2762950.492      -4757193.081
10 0 59702  81300.000000  0      -4497844.995       3007655.762      -4421154.860
10 0 59702  81360.000000  0      -4666811.864       3241358.844      -4066501.119
10 0 59702  81420.000000  0      -4814270.980       3462891.047      -3694717.220
10 0 59702  81480.000000  0      -4939707.584       3671128.591      -3307361.911
10 0 59702  81540.000000  0      -5042707.972       3864998.320      -2906060.965
10 0 59702  81600.000000  0      -5122960.966       4043483.217      -2492500.503
10 0 59702  81660.000000  0      -5180258.944       4205627.718      -2068420.095
10 0 59702  81720.000000  0      -5214498.469       4350542.860      -1635605.532
10 0 59702  81780.000000  0      -5225680.365       4477411.121      -1195881.284
10 0 59702  81840.000000  0      -5213909.304       4585490.943       -751102.809
10 0 59702  81900.000000  0      -5179392.918       4674120.990       -303148.650
10 0 59702  81960.000000  0      -5122440.381       4742724.047        146087.623
10 0 59702  82020.000000  0      -5043460.518       4790810.478        594705.590
10 0 59702  82080.000000  0      -4942959.437       4817981.231       1040806.195
10 0 59702  82140.000000  0      -4821537.685       4823930.487       1482499.970
10 0 59702  82200.000000  0      -4679886.915       4808447.827       1917915.242
10 0 59702  82260.000000  0      -4518786.130       4771419.965       2345206.216
10 0 59702  82320.000000  0      -4339097.509       4712832.007       2762560.959
10 0 59702  82380.000000  0      -4141761.871       4632768.231       3168209.209
10 0 59702  82440.000000  0      -3927793.797       4531412.397       3560430.012
10 0 59702  82500.000000  0      -3698276.413       4409047.546       3937559.100
10 0 59702  82560.000000  0      -3454355.939       4266055.356       4297996.005
10 0 59702  82620.000000  0      -3197235.931       4102915.043       4640210.952
10 0 59702  82680.000000  0      -2928171.263       3920201.723       4962751.369
10 0 59702  82740.000000  0      -2648461.950       3718584.354       5264248.041
10 0 59702  82800.000000  0      -2359446.777       3498823.217       5543420.877
10 0 59702  82860.000000  0      -2062496.830       3261766.974       5799084.284
10 0 59702  82920.000000  0      -1759008.926       3008349.313       6030152.110
10 0 59702  82980.000000  0      -1450398.962       2739585.174       6235642.183
10 0 59702  83040.000000  0      -1138095.251       2456566.552       6414680.300
10 0 59702  83100.000000  0       -823531.973       2160458.049       6566503.762
10 0 59702  83160.000000  0       -508142.647       1852492.112       6690464.631
10 0 59702  83220.000000  0       -193353.548       1533963.837       6786032.488
10 0 59702  83280.000000  0        119422.762       1206225.488       6852796.615
10 0 59702  83340.000000  0        428793.784        870680.783       6890467.725
10 0 59702  83400.000000  0        733393.273        528778.914       6898879.223
10 0 59702  83460.000000  0       1031887.279        182008.324       6877988.018
10 0 59702  83520.000000  0       1322980.018       -168109.750       6827874.858
10 0 59702  83580.000000  0       1605419.550       -520027.974       6748744.177
10 0 59702  83640.000000  0       1878003.231       -872179.803       6640923.351
10 0 59702  83700.000000  0       2139582.883      -1222986.406       6504861.512
10 0 59702  83760.000000  0       2389069.764      -1570863.787       6341127.955
10 0 59702  83820.000000  0       2625439.261      -1914230.043       6150409.975
10 0 59702  83880.000000  0       2847735.267      -2251512.663       5933510.137
10 0 59702  83940.000000  0       3055074.194      -2581155.818       5691343.087
10 0 59702  84000.000000  0       3246648.654      -2901627.682       5424931.910
10 0 59702  84060.000000  0       3421730.788      -3211427.742       5135403.997
10 0 59702  84120.000000  0       3579675.207      -3509094.009       4823986.396
10 0 59702  84180.000000  0       3719921.571      -3793210.122       4492000.759
10 0 59702  84240.000000  0       3841996.754      -4062412.362       4140857.762
10 0 59702  84300.000000  0       3945516.515      -4315396.422       3772051.090
10 0 59702  84360.000000  0       4030186.752      -4550923.965       3387151.091
10 0 59702  84420.000000  0       4095804.341      -4767828.943       2987797.989
10 0 59702  84480.000000  0       4142257.496      -4965023.586       2575694.736
10 0 59702  84540.000000  0       4169525.653      -5141504.035       2152599.544
10 0 59702  84600.000000  0       4177678.906      -5296355.598       1720318.155
10 0 59702  84660.000000  0       4166876.963      -5428757.601       1280695.827
10 0 59702  84720.000000  0       4137367.608      -5537987.739        835609.114
10 0 59702  84780.000000  0       4089484.741      -5623425.918        386957.589
10 0 59702  84840.000000  0       4023646.085      -5684557.708        -63344.535
10 0 59702  84900.000000  0       3940350.403      -5720977.302       -513376.999
10 0 59702  84960.000000  0       3840174.252      -5732389.846       -961222.110
10 0 59702  85020.000000  0       3723768.335      -5718613.154      -1404973.253
10 0 59702  85080.000000  0       3591853.557      -5679578.892      -1842743.252
10 0 59702  85140.000000  0       3445216.780      -5615333.235      -2272672.653
10 0 59702  85200.000000  0       3284706.267      -5526036.954      -2692937.882
10 0 59702  85260.000000  0       3111226.807      -5411964.884      -3101759.191
10 0 59702  85320.000000  0       2925734.610      -5273504.838      -3497408.279
10 0 59702  85380.000000  0       2729231.999      -5111155.979      -3878215.641
10 0 59702  85440.000000  0       2522761.933      -4925526.674      -4242577.559
10 0 59702  85500.000000  0       2307402.421      -4717331.832      -4588962.751
10 0 59702  85560.000000  0       2084260.849      -4487389.737      -4915918.600
10 0 59702  85620.000000  0       1854468.298      -4236618.436      -5222076.976
10 0 59702  85680.000000  0       1619173.833      -3966031.728      -5506159.660
10 0 59702  85740.000000  0       1379538.759      -3676734.752      -5766983.338
10 0 59702  85800.000000  0       1136730.918      -3369919.207      -6003464.153
10 0 59702  85860.000000  0        891919.038      -3046858.224      -6214621.839
10 0 59702  85920.000000  0        646267.149      -2708900.883      -6399583.387
10 0 59702  85980.000000  0        400929.153      -2357466.412      -6557586.250
10 0 59702  86040.000000  0        157043.514      -1994038.135      -6687981.078
10 0 59702  86100.000000  0        -84271.871      -1620157.167      -6790234.003
10 0 59702  86160.000000  0       -321924.619      -1237415.900      -6863928.492
10 0 59702  86220.000000  0       -554852.631       -847451.279      -6908766.744
10 0 59702  86280.000000  0       -782028.677       -451937.923      -6924570.641
10 0 59702  86340.000000  0      -1002464.794        -52581.089      -6911282.245
99
